{"type":"FeatureCollection","features":[{"type":"Feature","geometry":{"type":"Point","coordinates":[-70.2513228,-18.0358049]},"properties":{"nombre":"CORONEL ALBARRACIN","region":"REGION AREQUIPA","departamento":"Tacna","mm_pp":"Bajo","mm_fuente":"sin_cobertura","inund_pp":"Alto","seq_pp":"Alto","score_pp":11,"max_score":15,"n_vars":3,"nivel_pp":"Alto","color":"#ef4444"}},{"type":"Feature","geometry":{"type":"Point","coordinates":[-70.9346092,-17.1911997]},"properties":{"nombre":"MOQUEGUA","region":"REGION AREQUIPA","departamento":"Moquegua","mm_pp":"Bajo","mm_fuente":"sin_cobertura","inund_pp":"Sin dato","seq_pp":"Alto","score_pp":5,"max_score":9,"n_vars":2,"nivel_pp":"Medio","color":"#f59e0b"}},{"type":"Feature","geometry":{"type":"Point","coordinates":[-71.3443356,-17.6445186]},"properties":{"nombre":"ILO","region":"REGION AREQUIPA","departamento":"Moquegua","mm_pp":"Bajo","mm_fuente":"sin_cobertura","inund_pp":"Sin dato","seq_pp":"Alto","score_pp":5,"max_score":9,"n_vars":2,"nivel_pp":"Medio","color":"#f59e0b"}},{"type":"Feature","geometry":{"type":"Point","coordinates":[-71.5816006,-16.3425957]},"properties":{"nombre":"CERRO COLORADO","region":"REGION AREQUIPA","departamento":"Arequipa","mm_pp":"Bajo","mm_fuente":"sin_cobertura","inund_pp":"Alto","seq_pp":"Alto","score_pp":11,"max_score":15,"n_vars":3,"nivel_pp":"Alto","color":"#ef4444"}},{"type":"Feature","geometry":{"type":"Point","coordinates":[-71.6020802,-15.6353884]},"properties":{"nombre":"CHIVAY","region":"REGION AREQUIPA","departamento":"Arequipa","mm_pp":"Bajo","mm_fuente":"sin_cobertura","inund_pp":"Sin dato","seq_pp":"Bajo","score_pp":3,"max_score":9,"n_vars":2,"nivel_pp":"Bajo","color":"#22c55e"}},{"type":"Feature","geometry":{"type":"Point","coordinates":[-71.6020802,-15.6353884]},"properties":{"nombre":"CAMANA","region":"REGION AREQUIPA","departamento":"Arequipa","mm_pp":"Bajo","mm_fuente":"sin_cobertura","inund_pp":"Sin dato","seq_pp":"Bajo","score_pp":3,"max_score":9,"n_vars":2,"nivel_pp":"Bajo","color":"#22c55e"}},{"type":"Feature","geometry":{"type":"Point","coordinates":[-71.84107,-16.4944341]},"properties":{"nombre":"LA JOYA","region":"REGION AREQUIPA","departamento":"Arequipa","mm_pp":"Bajo","mm_fuente":"sin_cobertura","inund_pp":"Medio","seq_pp":"Alto","score_pp":9,"max_score":15,"n_vars":3,"nivel_pp":"Medio","color":"#f59e0b"}},{"type":"Feature","geometry":{"type":"Point","coordinates":[-72.4904872,-16.0752514]},"properties":{"nombre":"APLAO","region":"REGION AREQUIPA","departamento":"Arequipa","mm_pp":"Bajo","mm_fuente":"sin_cobertura","inund_pp":"Sin dato","seq_pp":"Alto","score_pp":5,"max_score":9,"n_vars":2,"nivel_pp":"Medio","color":"#f59e0b"}},{"type":"Feature","geometry":{"type":"Point","coordinates":[-72.6522034,-15.8393941]},"properties":{"nombre":"CHUQUIBAMBA","region":"REGION AREQUIPA","departamento":"Arequipa","mm_pp":"Bajo","mm_fuente":"sin_cobertura","inund_pp":"Sin dato","seq_pp":"Alto","score_pp":5,"max_score":9,"n_vars":2,"nivel_pp":"Medio","color":"#f59e0b"}},{"type":"Feature","geometry":{"type":"Point","coordinates":[-72.8791526,-13.6374476]},"properties":{"nombre":"ABANCAY","region":"REGION AYACUCHO","departamento":"Apurimac","mm_pp":"Alto","mm_fuente":"poligono","inund_pp":"Muy alto","seq_pp":"Bajo","score_pp":13,"max_score":15,"n_vars":3,"nivel_pp":"Alto","color":"#ef4444"}},{"type":"Feature","geometry":{"type":"Point","coordinates":[-73.3635177,-13.6511833]},"properties":{"nombre":"ANDAHUAYLAS","region":"REGION AYACUCHO","departamento":"Apurimac","mm_pp":"Bajo","mm_fuente":"sin_cobertura","inund_pp":"Sin dato","seq_pp":"Bajo","score_pp":3,"max_score":9,"n_vars":2,"nivel_pp":"Bajo","color":"#22c55e"}},{"type":"Feature","geometry":{"type":"Point","coordinates":[-73.6757407,-13.5329895]},"properties":{"nombre":"URIPA","region":"REGION AYACUCHO","departamento":"Ayacucho","mm_pp":"Bajo","mm_fuente":"sin_cobertura","inund_pp":"Muy alto","seq_pp":"Bajo","score_pp":9,"max_score":15,"n_vars":3,"nivel_pp":"Medio","color":"#f59e0b"}},{"type":"Feature","geometry":{"type":"Point","coordinates":[-73.7817156,-15.0163861]},"properties":{"nombre":"CORACORA","region":"REGION AYACUCHO","departamento":"Ayacucho","mm_pp":"Bajo","mm_fuente":"sin_cobertura","inund_pp":"Sin dato","seq_pp":"Medio","score_pp":4,"max_score":9,"n_vars":2,"nivel_pp":"Medio","color":"#f59e0b"}},{"type":"Feature","geometry":{"type":"Point","coordinates":[-74.0217628,-12.9493153]},"properties":{"nombre":"TAMBO","region":"REGION AYACUCHO","departamento":"Ayacucho","mm_pp":"Bajo","mm_fuente":"sin_cobertura","inund_pp":"Sin dato","seq_pp":"Bajo","score_pp":3,"max_score":9,"n_vars":2,"nivel_pp":"Bajo","color":"#22c55e"}},{"type":"Feature","geometry":{"type":"Point","coordinates":[-74.1248172,-14.695464]},"properties":{"nombre":"PUQUIO","region":"REGION AYACUCHO","departamento":"Ayacucho","mm_pp":"Alto","mm_fuente":"poligono","inund_pp":"Alto","seq_pp":"Bajo","score_pp":13,"max_score":15,"n_vars":3,"nivel_pp":"Alto","color":"#ef4444"}},{"type":"Feature","geometry":{"type":"Point","coordinates":[-74.1994795,-13.5595813]},"properties":{"nombre":"LOS MOROCHUCOS","region":"REGION AYACUCHO","departamento":"Ayacucho","mm_pp":"Bajo","mm_fuente":"sin_cobertura","inund_pp":"Muy alto","seq_pp":"Bajo","score_pp":9,"max_score":15,"n_vars":3,"nivel_pp":"Medio","color":"#f59e0b"}},{"type":"Feature","geometry":{"type":"Point","coordinates":[-74.2253431,-13.1557202]},"properties":{"nombre":"AYACUCHO","region":"REGION AYACUCHO","departamento":"Ayacucho","mm_pp":"Bajo","mm_fuente":"sin_cobertura","inund_pp":"Alto","seq_pp":"Bajo","score_pp":9,"max_score":15,"n_vars":3,"nivel_pp":"Medio","color":"#f59e0b"}},{"type":"Feature","geometry":{"type":"Point","coordinates":[-74.2504097,-12.9364932]},"properties":{"nombre":"HUANTA","region":"REGION AYACUCHO","departamento":"Ayacucho","mm_pp":"Bajo","mm_fuente":"sin_cobertura","inund_pp":"Sin dato","seq_pp":"Bajo","score_pp":3,"max_score":9,"n_vars":2,"nivel_pp":"Bajo","color":"#22c55e"}},{"type":"Feature","geometry":{"type":"Point","coordinates":[-74.7232962,-12.9921564]},"properties":{"nombre":"LIRCAY","region":"REGION AYACUCHO","departamento":"Ayacucho","mm_pp":"Bajo","mm_fuente":"sin_cobertura","inund_pp":"Sin dato","seq_pp":"Sin dato","score_pp":2,"max_score":6,"n_vars":1,"nivel_pp":"Bajo","color":"#22c55e"}},{"type":"Feature","geometry":{"type":"Point","coordinates":[-74.569743,-12.843166]},"properties":{"nombre":"ACOBAMBA","region":"REGION AYACUCHO","departamento":"HUANCAVELICA","mm_pp":"Bajo","mm_fuente":"sin_cobertura","inund_pp":"Sin dato","seq_pp":"Bajo","score_pp":3,"max_score":9,"n_vars":2,"nivel_pp":"Bajo","color":"#22c55e"}},{"type":"Feature","geometry":{"type":"Point","coordinates":[-74.489829,-11.428629]},"properties":{"nombre":"PANGOA","region":"REGION CENTRO","departamento":"Junin","mm_pp":"Bajo","mm_fuente":"sin_cobertura","inund_pp":"Sin dato","seq_pp":"Bajo","score_pp":3,"max_score":9,"n_vars":2,"nivel_pp":"Bajo","color":"#22c55e"}},{"type":"Feature","geometry":{"type":"Point","coordinates":[-73.7554703,-10.7297768]},"properties":{"nombre":"ATALAYA","region":"REGION CENTRO","departamento":"Ucayali","mm_pp":"Bajo","mm_fuente":"sin_cobertura","inund_pp":"Medio","seq_pp":"Sin riesgo","score_pp":6,"max_score":15,"n_vars":3,"nivel_pp":"Medio","color":"#f59e0b"}},{"type":"Feature","geometry":{"type":"Point","coordinates":[-74.6369581,-11.2542367]},"properties":{"nombre":"SATIPO","region":"REGION CENTRO","departamento":"Junin","mm_pp":"Bajo","mm_fuente":"sin_cobertura","inund_pp":"Alto","seq_pp":"Sin riesgo","score_pp":8,"max_score":15,"n_vars":3,"nivel_pp":"Medio","color":"#f59e0b"}},{"type":"Feature","geometry":{"type":"Point","coordinates":[-74.8708748,-12.3997694]},"properties":{"nombre":"PAMPAS","region":"REGION CENTRO","departamento":"Huancavelica","mm_pp":"Alto","mm_fuente":"poligono","inund_pp":"Sin dato","seq_pp":"Bajo","score_pp":7,"max_score":9,"n_vars":2,"nivel_pp":"Alto","color":"#ef4444"}},{"type":"Feature","geometry":{"type":"Point","coordinates":[-74.8748149,-10.9258519]},"properties":{"nombre":"PICHANAQUI","region":"REGION CENTRO","departamento":"Junin","mm_pp":"Alto","mm_fuente":"poligono","inund_pp":"Alto","seq_pp":"Sin riesgo","score_pp":12,"max_score":15,"n_vars":3,"nivel_pp":"Alto","color":"#ef4444"}},{"type":"Feature","geometry":{"type":"Point","coordinates":[-75.2046606,-12.0727153]},"properties":{"nombre":"HUANCAYO SANTA","region":"REGION CENTRO","departamento":"Junin","mm_pp":"Bajo","mm_fuente":"sin_cobertura","inund_pp":"Medio","seq_pp":"Bajo","score_pp":7,"max_score":15,"n_vars":3,"nivel_pp":"Medio","color":"#f59e0b"}},{"type":"Feature","geometry":{"type":"Point","coordinates":[-75.216389,-12.0587221]},"properties":{"nombre":"HUANCAYO","region":"REGION CENTRO","departamento":"Junin","mm_pp":"Bajo","mm_fuente":"sin_cobertura","inund_pp":"Medio","seq_pp":"Bajo","score_pp":7,"max_score":15,"n_vars":3,"nivel_pp":"Medio","color":"#f59e0b"}},{"type":"Feature","geometry":{"type":"Point","coordinates":[-75.2683054,-10.7359433]},"properties":{"nombre":"VILLA RICA","region":"REGION CENTRO","departamento":"Pasco","mm_pp":"Bajo","mm_fuente":"sin_cobertura","inund_pp":"Medio","seq_pp":"Bajo","score_pp":7,"max_score":15,"n_vars":3,"nivel_pp":"Medio","color":"#f59e0b"}},{"type":"Feature","geometry":{"type":"Point","coordinates":[-75.2876174,-12.0613867]},"properties":{"nombre":"CHUPACA","region":"REGION CENTRO","departamento":"Junin","mm_pp":"Bajo","mm_fuente":"sin_cobertura","inund_pp":"Alto","seq_pp":"Bajo","score_pp":9,"max_score":15,"n_vars":3,"nivel_pp":"Medio","color":"#f59e0b"}},{"type":"Feature","geometry":{"type":"Point","coordinates":[-75.3296883,-11.0550232]},"properties":{"nombre":"CHANCHAMAYO","region":"REGION CENTRO","departamento":"Junin","mm_pp":"Bajo","mm_fuente":"sin_cobertura","inund_pp":"Sin dato","seq_pp":"Sin riesgo","score_pp":2,"max_score":9,"n_vars":2,"nivel_pp":"Bajo","color":"#22c55e"}},{"type":"Feature","geometry":{"type":"Point","coordinates":[-75.405094,-10.5738696]},"properties":{"nombre":"OXAPAMPA","region":"REGION CENTRO","departamento":"Pasco","mm_pp":"Bajo","mm_fuente":"sin_cobertura","inund_pp":"Muy alto","seq_pp":"Sin riesgo","score_pp":8,"max_score":15,"n_vars":3,"nivel_pp":"Medio","color":"#f59e0b"}},{"type":"Feature","geometry":{"type":"Point","coordinates":[-75.4967953,-11.7799602]},"properties":{"nombre":"JAUJA","region":"REGION CENTRO","departamento":"Junin","mm_pp":"Bajo","mm_fuente":"sin_cobertura","inund_pp":"Medio","seq_pp":"Bajo","score_pp":7,"max_score":15,"n_vars":3,"nivel_pp":"Medio","color":"#f59e0b"}},{"type":"Feature","geometry":{"type":"Point","coordinates":[-75.6897525,-11.4196515]},"properties":{"nombre":"TARMA","region":"REGION CENTRO","departamento":"Junin","mm_pp":"Bajo","mm_fuente":"sin_cobertura","inund_pp":"Sin dato","seq_pp":"Bajo","score_pp":3,"max_score":9,"n_vars":2,"nivel_pp":"Bajo","color":"#22c55e"}},{"type":"Feature","geometry":{"type":"Point","coordinates":[-76.2532299,-10.6676476]},"properties":{"nombre":"CERRO DE PASCO","region":"REGION CENTRO","departamento":"Pasco","mm_pp":"Bajo","mm_fuente":"sin_cobertura","inund_pp":"Sin dato","seq_pp":"Sin riesgo","score_pp":2,"max_score":9,"n_vars":2,"nivel_pp":"Bajo","color":"#22c55e"}},{"type":"Feature","geometry":{"type":"Point","coordinates":[-75.9947227,-9.8976399]},"properties":{"nombre":"PANAO","region":"REGION CENTRO ORIENTE","departamento":"Huanuco","mm_pp":"Bajo","mm_fuente":"sin_cobertura","inund_pp":"Sin dato","seq_pp":"Bajo","score_pp":3,"max_score":9,"n_vars":2,"nivel_pp":"Bajo","color":"#22c55e"}},{"type":"Feature","geometry":{"type":"Point","coordinates":[-76.00139,-9.2962632]},"properties":{"nombre":"TINGO MARIA","region":"REGION CENTRO ORIENTE","departamento":"Huanuco","mm_pp":"Bajo","mm_fuente":"sin_cobertura","inund_pp":"Sin dato","seq_pp":"Sin riesgo","score_pp":2,"max_score":9,"n_vars":2,"nivel_pp":"Bajo","color":"#22c55e"}},{"type":"Feature","geometry":{"type":"Point","coordinates":[-76.1183217,-8.9311759]},"properties":{"nombre":"AUCAYACU","region":"REGION CENTRO ORIENTE","departamento":"Huanuco","mm_pp":"Bajo","mm_fuente":"sin_cobertura","inund_pp":"Medio","seq_pp":"Sin riesgo","score_pp":6,"max_score":15,"n_vars":3,"nivel_pp":"Medio","color":"#f59e0b"}},{"type":"Feature","geometry":{"type":"Point","coordinates":[-76.2051045,-10.1290708]},"properties":{"nombre":"AMBO","region":"REGION CENTRO ORIENTE","departamento":"Huanuco","mm_pp":"Bajo","mm_fuente":"sin_cobertura","inund_pp":"Muy alto","seq_pp":"Bajo","score_pp":9,"max_score":15,"n_vars":3,"nivel_pp":"Medio","color":"#f59e0b"}},{"type":"Feature","geometry":{"type":"Point","coordinates":[-76.2394602,-9.9290308]},"properties":{"nombre":"HUANUCO","region":"REGION CENTRO ORIENTE","departamento":"Huanuco","mm_pp":"Bajo","mm_fuente":"sin_cobertura","inund_pp":"Sin dato","seq_pp":"Bajo","score_pp":3,"max_score":9,"n_vars":2,"nivel_pp":"Bajo","color":"#22c55e"}},{"type":"Feature","geometry":{"type":"Point","coordinates":[-76.5115974,-8.1892889]},"properties":{"nombre":"TOCACHE","region":"REGION CENTRO ORIENTE","departamento":"San Martin","mm_pp":"Bajo","mm_fuente":"sin_cobertura","inund_pp":"Alto","seq_pp":"Sin riesgo","score_pp":8,"max_score":15,"n_vars":3,"nivel_pp":"Medio","color":"#f59e0b"}},{"type":"Feature","geometry":{"type":"Point","coordinates":[-76.728785,-7.180721]},"properties":{"nombre":"JUANJUI","region":"REGION CENTRO ORIENTE","departamento":"SAN MARTIN","mm_pp":"Bajo","mm_fuente":"sin_cobertura","inund_pp":"Medio","seq_pp":"Sin riesgo","score_pp":6,"max_score":15,"n_vars":3,"nivel_pp":"Medio","color":"#f59e0b"}},{"type":"Feature","geometry":{"type":"Point","coordinates":[-76.332094,-6.91764]},"properties":{"nombre":"PICOTA","region":"REGION CENTRO ORIENTE","departamento":"SAN MARTIN","mm_pp":"Bajo","mm_fuente":"sin_cobertura","inund_pp":"Sin dato","seq_pp":"Bajo","score_pp":3,"max_score":9,"n_vars":2,"nivel_pp":"Bajo","color":"#22c55e"}},{"type":"Feature","geometry":{"type":"Point","coordinates":[-75.214632,-8.829658]},"properties":{"nombre":"SAN ALEJANDRO","region":"REGION CENTRO ORIENTE","departamento":"UCAYALI","mm_pp":"Bajo","mm_fuente":"sin_cobertura","inund_pp":"Sin dato","seq_pp":"Sin riesgo","score_pp":2,"max_score":9,"n_vars":2,"nivel_pp":"Bajo","color":"#22c55e"}},{"type":"Feature","geometry":{"type":"Point","coordinates":[-71.2304243,-14.2724911]},"properties":{"nombre":"SICUANI","region":"REGION CUSCO","departamento":"Cusco","mm_pp":"Bajo","mm_fuente":"sin_cobertura","inund_pp":"Sin dato","seq_pp":"Bajo","score_pp":3,"max_score":9,"n_vars":2,"nivel_pp":"Bajo","color":"#22c55e"}},{"type":"Feature","geometry":{"type":"Point","coordinates":[-71.4116167,-14.7928552]},"properties":{"nombre":"ESPINAR","region":"REGION CUSCO","departamento":"Cusco","mm_pp":"Bajo","mm_fuente":"sin_cobertura","inund_pp":"Medio","seq_pp":"Sin riesgo","score_pp":6,"max_score":15,"n_vars":3,"nivel_pp":"Medio","color":"#f59e0b"}},{"type":"Feature","geometry":{"type":"Point","coordinates":[-71.4295976,-14.1016002]},"properties":{"nombre":"COMBAPATA","region":"REGION CUSCO","departamento":"Cusco","mm_pp":"Bajo","mm_fuente":"sin_cobertura","inund_pp":"Alto","seq_pp":"Bajo","score_pp":9,"max_score":15,"n_vars":3,"nivel_pp":"Medio","color":"#f59e0b"}},{"type":"Feature","geometry":{"type":"Point","coordinates":[-75.2314225,-14.3942775]},"properties":{"nombre":"SANTO TOMAS","region":"REGION CUSCO","departamento":"Cusco","mm_pp":"Muy alto","mm_fuente":"poligono","inund_pp":"Sin dato","seq_pp":"Alto","score_pp":9,"max_score":9,"n_vars":2,"nivel_pp":"Alto","color":"#ef4444"}},{"type":"Feature","geometry":{"type":"Point","coordinates":[-71.6263531,-13.6873758]},"properties":{"nombre":"ARICA URCOS","region":"REGION CUSCO","departamento":"Cusco","mm_pp":"Bajo","mm_fuente":"sin_cobertura","inund_pp":"Alto","seq_pp":"Bajo","score_pp":9,"max_score":15,"n_vars":3,"nivel_pp":"Medio","color":"#f59e0b"}},{"type":"Feature","geometry":{"type":"Point","coordinates":[-71.689899,-14.3128454]},"properties":{"nombre":"LIVITACA","region":"REGION CUSCO","departamento":"Cusco","mm_pp":"Bajo","mm_fuente":"sin_cobertura","inund_pp":"Sin dato","seq_pp":"Sin riesgo","score_pp":2,"max_score":9,"n_vars":2,"nivel_pp":"Bajo","color":"#22c55e"}},{"type":"Feature","geometry":{"type":"Point","coordinates":[-71.9089988,-13.5353804]},"properties":{"nombre":"CACHIMAYO SAN SEBASTIAN","region":"REGION CUSCO","departamento":"Cusco","mm_pp":"Bajo","mm_fuente":"sin_cobertura","inund_pp":"Sin dato","seq_pp":"Bajo","score_pp":3,"max_score":9,"n_vars":2,"nivel_pp":"Bajo","color":"#22c55e"}},{"type":"Feature","geometry":{"type":"Point","coordinates":[-71.9564879,-13.3221472]},"properties":{"nombre":"CALCA","region":"REGION CUSCO","departamento":"Cusco","mm_pp":"Alto","mm_fuente":"poligono","inund_pp":"Sin dato","seq_pp":"Bajo","score_pp":7,"max_score":9,"n_vars":2,"nivel_pp":"Alto","color":"#ef4444"}},{"type":"Feature","geometry":{"type":"Point","coordinates":[-72.1450995,-13.4638725]},"properties":{"nombre":"ANTA","region":"REGION CUSCO","departamento":"Cusco","mm_pp":"Bajo","mm_fuente":"sin_cobertura","inund_pp":"Sin dato","seq_pp":"Sin riesgo","score_pp":2,"max_score":9,"n_vars":2,"nivel_pp":"Bajo","color":"#22c55e"}},{"type":"Feature","geometry":{"type":"Point","coordinates":[-77.027189,-12.118857]},"properties":{"nombre":"SAN ISIDRO","region":"REGION LIMA","departamento":"","mm_pp":"Bajo","mm_fuente":"sin_cobertura","inund_pp":"Medio","seq_pp":"Alto","score_pp":9,"max_score":15,"n_vars":3,"nivel_pp":"Medio","color":"#f59e0b"}},{"type":"Feature","geometry":{"type":"Point","coordinates":[-77.4828217,-6.3954965]},"properties":{"nombre":"RODRIGUEZ DE MENDOZA","region":"REGION NORTE","departamento":"Amazonas","mm_pp":"Bajo","mm_fuente":"sin_cobertura","inund_pp":"Sin dato","seq_pp":"Sin riesgo","score_pp":2,"max_score":9,"n_vars":2,"nivel_pp":"Bajo","color":"#22c55e"}},{"type":"Feature","geometry":{"type":"Point","coordinates":[-77.8710563,-6.2280861]},"properties":{"nombre":"CHACHAPOYAS","region":"REGION NORTE","departamento":"Amazonas","mm_pp":"Bajo","mm_fuente":"sin_cobertura","inund_pp":"Sin dato","seq_pp":"Sin riesgo","score_pp":2,"max_score":9,"n_vars":2,"nivel_pp":"Bajo","color":"#22c55e"}},{"type":"Feature","geometry":{"type":"Point","coordinates":[-78.0450062,-7.6259036]},"properties":{"nombre":"CAJABAMBA","region":"REGION NORTE","departamento":"Cajamarca","mm_pp":"Bajo","mm_fuente":"sin_cobertura","inund_pp":"Medio","seq_pp":"Sin riesgo","score_pp":6,"max_score":15,"n_vars":3,"nivel_pp":"Medio","color":"#f59e0b"}},{"type":"Feature","geometry":{"type":"Point","coordinates":[-78.1460028,-6.866458]},"properties":{"nombre":"CELENDIN","region":"REGION NORTE","departamento":"Cajamarca","mm_pp":"Bajo","mm_fuente":"sin_cobertura","inund_pp":"Alto","seq_pp":"Sin riesgo","score_pp":8,"max_score":15,"n_vars":3,"nivel_pp":"Medio","color":"#f59e0b"}},{"type":"Feature","geometry":{"type":"Point","coordinates":[-78.5180708,-7.1552327]},"properties":{"nombre":"CAJAMARCA","region":"REGION NORTE","departamento":"Cajamarca","mm_pp":"Bajo","mm_fuente":"sin_cobertura","inund_pp":"Sin dato","seq_pp":"Bajo","score_pp":3,"max_score":9,"n_vars":2,"nivel_pp":"Bajo","color":"#22c55e"}},{"type":"Feature","geometry":{"type":"Point","coordinates":[-78.5192268,-6.6802094]},"properties":{"nombre":"BAMBAMARCA","region":"REGION NORTE","departamento":"Cajamarca","mm_pp":"Bajo","mm_fuente":"sin_cobertura","inund_pp":"Sin dato","seq_pp":"Bajo","score_pp":3,"max_score":9,"n_vars":2,"nivel_pp":"Bajo","color":"#22c55e"}},{"type":"Feature","geometry":{"type":"Point","coordinates":[-78.6510919,-6.5608507]},"properties":{"nombre":"CHOTA","region":"REGION NORTE","departamento":"Cajamarca","mm_pp":"Alto","mm_fuente":"poligono","inund_pp":"Sin dato","seq_pp":"Sin riesgo","score_pp":6,"max_score":9,"n_vars":2,"nivel_pp":"Medio","color":"#f59e0b"}},{"type":"Feature","geometry":{"type":"Point","coordinates":[-78.8141572,-6.3765836]},"properties":{"nombre":"CUTERVO","region":"REGION NORTE","departamento":"Cajamarca","mm_pp":"Bajo","mm_fuente":"sin_cobertura","inund_pp":"Alto","seq_pp":"Sin riesgo","score_pp":8,"max_score":15,"n_vars":3,"nivel_pp":"Medio","color":"#f59e0b"}},{"type":"Feature","geometry":{"type":"Point","coordinates":[-79.8375115,-6.7714347]},"properties":{"nombre":"CHICLAYO","region":"REGION NORTE","departamento":"Lambayeque","mm_pp":"Bajo","mm_fuente":"sin_cobertura","inund_pp":"Alto","seq_pp":"Alto","score_pp":11,"max_score":15,"n_vars":3,"nivel_pp":"Alto","color":"#ef4444"}},{"type":"Feature","geometry":{"type":"Point","coordinates":[-78.531165,-5.639282]},"properties":{"nombre":"BAGUA","region":"REGION NORTE","departamento":"AMAZONAS","mm_pp":"Bajo","mm_fuente":"sin_cobertura","inund_pp":"Sin dato","seq_pp":"Bajo","score_pp":3,"max_score":9,"n_vars":2,"nivel_pp":"Bajo","color":"#22c55e"}},{"type":"Feature","geometry":{"type":"Point","coordinates":[-78.4434842,-5.755738]},"properties":{"nombre":"BAGUA GRANDE","region":"REGION NORTE","departamento":"AMAZONAS","mm_pp":"Bajo","mm_fuente":"sin_cobertura","inund_pp":"Sin dato","seq_pp":"Bajo","score_pp":3,"max_score":9,"n_vars":2,"nivel_pp":"Bajo","color":"#22c55e"}},{"type":"Feature","geometry":{"type":"Point","coordinates":[-78.047243,-7.815235]},"properties":{"nombre":"HUAMACHUCO","region":"REGION NORTE","departamento":"LA LIBERTAD","mm_pp":"Bajo","mm_fuente":"sin_cobertura","inund_pp":"Sin dato","seq_pp":"Sin riesgo","score_pp":2,"max_score":9,"n_vars":2,"nivel_pp":"Bajo","color":"#22c55e"}},{"type":"Feature","geometry":{"type":"Point","coordinates":[-78.169376,-7.335617]},"properties":{"nombre":"PEDRO GALVEZ","region":"REGION NORTE","departamento":"CAJAMARCA","mm_pp":"Bajo","mm_fuente":"sin_cobertura","inund_pp":"Sin dato","seq_pp":"Bajo","score_pp":3,"max_score":9,"n_vars":2,"nivel_pp":"Bajo","color":"#22c55e"}},{"type":"Feature","geometry":{"type":"Point","coordinates":[-77.978102,-5.943251]},"properties":{"nombre":"PEDRO RUIZ","region":"REGION NORTE","departamento":"AMAZONAS","mm_pp":"Alto","mm_fuente":"poligono","inund_pp":"Sin dato","seq_pp":"Bajo","score_pp":7,"max_score":9,"n_vars":2,"nivel_pp":"Alto","color":"#ef4444"}},{"type":"Feature","geometry":{"type":"Point","coordinates":[-78.850474,-6.998474]},"properties":{"nombre":"SAN MIGUEL","region":"REGION NORTE","departamento":"CAJAMARCA","mm_pp":"Bajo","mm_fuente":"sin_cobertura","inund_pp":"Sin dato","seq_pp":"Sin riesgo","score_pp":2,"max_score":9,"n_vars":2,"nivel_pp":"Bajo","color":"#22c55e"}},{"type":"Feature","geometry":{"type":"Point","coordinates":[-78.944946,-6.625198]},"properties":{"nombre":"SANTA CRUZ","region":"REGION NORTE","departamento":"CAJAMARCA","mm_pp":"Bajo","mm_fuente":"sin_cobertura","inund_pp":"Medio","seq_pp":"Bajo","score_pp":7,"max_score":15,"n_vars":3,"nivel_pp":"Medio","color":"#f59e0b"}},{"type":"Feature","geometry":{"type":"Point","coordinates":[-78.612732,-6.394072]},"properties":{"nombre":"TACABAMBA","region":"REGION NORTE","departamento":"CAJAMARCA","mm_pp":"Alto","mm_fuente":"poligono","inund_pp":"Sin dato","seq_pp":"Bajo","score_pp":7,"max_score":9,"n_vars":2,"nivel_pp":"Alto","color":"#ef4444"}},{"type":"Feature","geometry":{"type":"Point","coordinates":[-78.807165,-5.708153]},"properties":{"nombre":"JAEN","region":"REGION NORTE","departamento":"CAJAMARCA","mm_pp":"Bajo","mm_fuente":"sin_cobertura","inund_pp":"Alto","seq_pp":"Bajo","score_pp":9,"max_score":15,"n_vars":3,"nivel_pp":"Medio","color":"#f59e0b"}},{"type":"Feature","geometry":{"type":"Point","coordinates":[-69.4686419,-14.3186753]},"properties":{"nombre":"SANDIA","region":"REGION PUNO NORTE","departamento":"Puno","mm_pp":"Alto","mm_fuente":"poligono","inund_pp":"Sin dato","seq_pp":"Bajo","score_pp":7,"max_score":9,"n_vars":2,"nivel_pp":"Alto","color":"#ef4444"}},{"type":"Feature","geometry":{"type":"Point","coordinates":[-69.5009762,-15.3596285]},"properties":{"nombre":"MOHO","region":"REGION PUNO NORTE","departamento":"Puno","mm_pp":"Bajo","mm_fuente":"sin_cobertura","inund_pp":"Sin dato","seq_pp":"Sin riesgo","score_pp":2,"max_score":9,"n_vars":2,"nivel_pp":"Bajo","color":"#22c55e"}},{"type":"Feature","geometry":{"type":"Point","coordinates":[-69.7636146,-15.201196]},"properties":{"nombre":"HUANCANE","region":"REGION PUNO NORTE","departamento":"Puno","mm_pp":"Bajo","mm_fuente":"sin_cobertura","inund_pp":"Sin dato","seq_pp":"Bajo","score_pp":3,"max_score":9,"n_vars":2,"nivel_pp":"Bajo","color":"#22c55e"}},{"type":"Feature","geometry":{"type":"Point","coordinates":[-69.8686904,-14.9144314]},"properties":{"nombre":"PUTINAPUNCO","region":"REGION PUNO NORTE","departamento":"Puno","mm_pp":"Bajo","mm_fuente":"sin_cobertura","inund_pp":"Medio","seq_pp":"Bajo","score_pp":7,"max_score":15,"n_vars":3,"nivel_pp":"Medio","color":"#f59e0b"}},{"type":"Feature","geometry":{"type":"Point","coordinates":[-69.9525949,-14.7680407]},"properties":{"nombre":"MUÑANI","region":"REGION PUNO NORTE","departamento":"Puno","mm_pp":"Bajo","mm_fuente":"sin_cobertura","inund_pp":"Medio","seq_pp":"Bajo","score_pp":7,"max_score":15,"n_vars":3,"nivel_pp":"Medio","color":"#f59e0b"}},{"type":"Feature","geometry":{"type":"Point","coordinates":[-69.979886,-15.2990821]},"properties":{"nombre":"TARACO","region":"REGION PUNO NORTE","departamento":"Puno","mm_pp":"Bajo","mm_fuente":"sin_cobertura","inund_pp":"Medio","seq_pp":"Bajo","score_pp":7,"max_score":15,"n_vars":3,"nivel_pp":"Medio","color":"#f59e0b"}},{"type":"Feature","geometry":{"type":"Point","coordinates":[-70.0348537,-14.3454954]},"properties":{"nombre":"CRUCERO","region":"REGION PUNO NORTE","departamento":"Puno","mm_pp":"Alto","mm_fuente":"poligono","inund_pp":"Medio","seq_pp":"Sin riesgo","score_pp":10,"max_score":15,"n_vars":3,"nivel_pp":"Medio","color":"#f59e0b"}},{"type":"Feature","geometry":{"type":"Point","coordinates":[-70.1968364,-14.9102993]},"properties":{"nombre":"AZANGARO","region":"REGION PUNO NORTE","departamento":"Puno","mm_pp":"Bajo","mm_fuente":"sin_cobertura","inund_pp":"Medio","seq_pp":"Bajo","score_pp":7,"max_score":15,"n_vars":3,"nivel_pp":"Medio","color":"#f59e0b"}},{"type":"Feature","geometry":{"type":"Point","coordinates":[-70.3174813,-14.5835805]},"properties":{"nombre":"SAN ANTON","region":"REGION PUNO NORTE","departamento":"Puno","mm_pp":"Bajo","mm_fuente":"sin_cobertura","inund_pp":"Sin dato","seq_pp":"Sin riesgo","score_pp":2,"max_score":9,"n_vars":2,"nivel_pp":"Bajo","color":"#22c55e"}},{"type":"Feature","geometry":{"type":"Point","coordinates":[-70.3379551,-15.0332676]},"properties":{"nombre":"JOSE DOMINGO CHOQUEHUANCA","region":"REGION PUNO NORTE","departamento":"Puno","mm_pp":"Bajo","mm_fuente":"sin_cobertura","inund_pp":"Medio","seq_pp":"Sin riesgo","score_pp":6,"max_score":15,"n_vars":3,"nivel_pp":"Medio","color":"#f59e0b"}},{"type":"Feature","geometry":{"type":"Point","coordinates":[-70.3545168,-14.7870396]},"properties":{"nombre":"ASILLO","region":"REGION PUNO NORTE","departamento":"Puno","mm_pp":"Alto","mm_fuente":"poligono","inund_pp":"Sin dato","seq_pp":"Bajo","score_pp":7,"max_score":9,"n_vars":2,"nivel_pp":"Alto","color":"#ef4444"}},{"type":"Feature","geometry":{"type":"Point","coordinates":[-70.4314716,-14.0682759]},"properties":{"nombre":"MACUSANI","region":"REGION PUNO NORTE","departamento":"Puno","mm_pp":"Alto","mm_fuente":"poligono","inund_pp":"Medio","seq_pp":"Sin riesgo","score_pp":10,"max_score":15,"n_vars":3,"nivel_pp":"Medio","color":"#f59e0b"}},{"type":"Feature","geometry":{"type":"Point","coordinates":[-70.5903648,-14.881806]},"properties":{"nombre":"AYAVIRI","region":"REGION PUNO NORTE","departamento":"Puno","mm_pp":"Bajo","mm_fuente":"sin_cobertura","inund_pp":"Medio","seq_pp":"Sin riesgo","score_pp":6,"max_score":15,"n_vars":3,"nivel_pp":"Medio","color":"#f59e0b"}},{"type":"Feature","geometry":{"type":"Point","coordinates":[-70.903852,-14.7715522]},"properties":{"nombre":"MACARI","region":"REGION PUNO NORTE","departamento":"Puno","mm_pp":"Bajo","mm_fuente":"sin_cobertura","inund_pp":"Sin dato","seq_pp":"Sin riesgo","score_pp":2,"max_score":9,"n_vars":2,"nivel_pp":"Bajo","color":"#22c55e"}},{"type":"Feature","geometry":{"type":"Point","coordinates":[-69.860339,-14.914865]},"properties":{"nombre":"PUTINA","region":"REGION PUNO NORTE","departamento":"PUNO","mm_pp":"Bajo","mm_fuente":"sin_cobertura","inund_pp":"Medio","seq_pp":"Bajo","score_pp":7,"max_score":15,"n_vars":3,"nivel_pp":"Medio","color":"#f59e0b"}},{"type":"Feature","geometry":{"type":"Point","coordinates":[-69.0374174,-16.5630757]},"properties":{"nombre":"DESAGUADERO","region":"REGION PUNO SUR","departamento":"Puno","mm_pp":"Bajo","mm_fuente":"sin_cobertura","inund_pp":"Sin dato","seq_pp":"Sin dato","score_pp":2,"max_score":6,"n_vars":1,"nivel_pp":"Bajo","color":"#22c55e"}},{"type":"Feature","geometry":{"type":"Point","coordinates":[-69.0945225,-16.2467131]},"properties":{"nombre":"YUNGUYO","region":"REGION PUNO SUR","departamento":"Puno","mm_pp":"Bajo","mm_fuente":"sin_cobertura","inund_pp":"Sin dato","seq_pp":"Sin riesgo","score_pp":2,"max_score":9,"n_vars":2,"nivel_pp":"Bajo","color":"#22c55e"}},{"type":"Feature","geometry":{"type":"Point","coordinates":[-69.4591059,-16.2137902]},"properties":{"nombre":"JULI","region":"REGION PUNO SUR","departamento":"Puno","mm_pp":"Alto","mm_fuente":"poligono","inund_pp":"Sin dato","seq_pp":"Sin riesgo","score_pp":6,"max_score":9,"n_vars":2,"nivel_pp":"Medio","color":"#f59e0b"}},{"type":"Feature","geometry":{"type":"Point","coordinates":[-69.6390317,-16.0868718]},"properties":{"nombre":"ILAVE","region":"REGION PUNO SUR","departamento":"Puno","mm_pp":"Bajo","mm_fuente":"sin_cobertura","inund_pp":"Sin dato","seq_pp":"Sin riesgo","score_pp":2,"max_score":9,"n_vars":2,"nivel_pp":"Bajo","color":"#22c55e"}},{"type":"Feature","geometry":{"type":"Point","coordinates":[-69.7954124,-15.9721852]},"properties":{"nombre":"ACORA","region":"REGION PUNO SUR","departamento":"Puno","mm_pp":"Bajo","mm_fuente":"sin_cobertura","inund_pp":"Sin dato","seq_pp":"Sin riesgo","score_pp":2,"max_score":9,"n_vars":2,"nivel_pp":"Bajo","color":"#22c55e"}},{"type":"Feature","geometry":{"type":"Point","coordinates":[-69.9494441,-15.5703001]},"properties":{"nombre":"COATA","region":"REGION PUNO SUR","departamento":"Puno","mm_pp":"Bajo","mm_fuente":"sin_cobertura","inund_pp":"Medio","seq_pp":"Bajo","score_pp":7,"max_score":15,"n_vars":3,"nivel_pp":"Medio","color":"#f59e0b"}},{"type":"Feature","geometry":{"type":"Point","coordinates":[-70.0272541,-15.8373854]},"properties":{"nombre":"PUNO","region":"REGION PUNO SUR","departamento":"Puno","mm_pp":"Alto","mm_fuente":"poligono","inund_pp":"Medio","seq_pp":"Sin riesgo","score_pp":10,"max_score":15,"n_vars":3,"nivel_pp":"Medio","color":"#f59e0b"}},{"type":"Feature","geometry":{"type":"Point","coordinates":[-70.1253399,-15.4907532]},"properties":{"nombre":"JULIACA","region":"REGION PUNO SUR","departamento":"Puno","mm_pp":"Bajo","mm_fuente":"sin_cobertura","inund_pp":"Medio","seq_pp":"Bajo","score_pp":7,"max_score":15,"n_vars":3,"nivel_pp":"Medio","color":"#f59e0b"}},{"type":"Feature","geometry":{"type":"Point","coordinates":[-70.3436473,-15.8009528]},"properties":{"nombre":"MAÑAZO","region":"REGION PUNO SUR","departamento":"Puno","mm_pp":"Bajo","mm_fuente":"sin_cobertura","inund_pp":"Medio","seq_pp":"Bajo","score_pp":7,"max_score":15,"n_vars":3,"nivel_pp":"Medio","color":"#f59e0b"}}]}